[{"OBJECT_NAME":"STARLINK-30265","OBJECT_ID":"2023-122Q","EPOCH":"2026-03-09T02:41:42.936864","MEAN_MOTION":15.26741509,"ECCENTRICITY":0.00012252,"INCLINATION":43.0004,"RA_OF_ASC_NODE":95.3336,"ARG_OF_PERICENTER":290.4065,"MEAN_ANOMALY":69.6655,"EPHEMERIS_TYPE":0,"CLASSIFICATION_TYPE":"U","NORAD_CAT_ID":57646,"ELEMENT_SET_NO":999,"REV_AT_EPOCH":14212,"BSTAR":4.6145162e-5,"MEAN_MOTION_DOT":9.78e-6,"MEAN_MOTION_DDOT":0},{"OBJECT_NAME":"BRO-11","OBJECT_ID":"2023-174J","EPOCH":"2026-03-09T23:01:09.890400","MEAN_MOTION":15.26267731,"ECCENTRICITY":0.00104518,"INCLINATION":97.3961,"RA_OF_ASC_NODE":146.7679,"ARG_OF_PERICENTER":189.9892,"MEAN_ANOMALY":170.1141,"EPHEMERIS_TYPE":0,"CLASSIFICATION_TYPE":"U","NORAD_CAT_ID":58264,"ELEMENT_SET_NO":999,"REV_AT_EPOCH":12961,"BSTAR":0.00032296323,"MEAN_MOTION_DOT":8.313e-5,"MEAN_MOTION_DDOT":0}]
